[{"OBJECT_NAME":"GAOFEN-9 02","OBJECT_ID":"2020-034B","EPOCH":"2026-03-10T00:01:23.433024","MEAN_MOTION":15.24736529,"ECCENTRICITY":0.00138652,"INCLINATION":97.5615,"RA_OF_ASC_NODE":225.1997,"ARG_OF_PERICENTER":60.5372,"MEAN_ANOMALY":299.7247,"EPHEMERIS_TYPE":0,"CLASSIFICATION_TYPE":"U","NORAD_CAT_ID":45625,"ELEMENT_SET_NO":999,"REV_AT_EPOCH":32104,"BSTAR":0.00036092627,"MEAN_MOTION_DOT":8.888e-5,"MEAN_MOTION_DDOT":0},{"OBJECT_NAME":"STARLINK-31342","OBJECT_ID":"2024-044Q","EPOCH":"2026-03-09T19:15:48.623904","MEAN_MOTION":15.27566272,"ECCENTRICITY":7.647e-5,"INCLINATION":43.0028,"RA_OF_ASC_NODE":106.3237,"ARG_OF_PERICENTER":250.4263,"MEAN_ANOMALY":109.6507,"EPHEMERIS_TYPE":0,"CLASSIFICATION_TYPE":"U","NORAD_CAT_ID":59166,"ELEMENT_SET_NO":999,"REV_AT_EPOCH":11361,"BSTAR":-3.4448419e-5,"MEAN_MOTION_DOT":-1.209e-5,"MEAN_MOTION_DDOT":0}]
